TWILIGHT X              
1 67384U 26004X   26027.95364413  .00009089  00000+0  99032-3 0  9993
2 67384  97.7977  28.8530 0003099 206.1091 153.9970 14.88202216  2439
TWILIGHT Y              
1 67385U 26004Y   26027.95271962  .00008787  00000+0  95578-3 0  9995
2 67385  97.7988  28.8555 0003026 198.7925 161.3181 14.88282280  2437
TWILIGHT Z              
1 67386U 26004Z   26027.95131313  .00004019  00000+0  44035-3 0  9997
2 67386  97.7969  28.8561 0001907 195.0669 165.0492 14.88308655  2436
TWILIGHT AA             
1 67387U 26004AA  26027.94867445  .00006280  00000+0  67970-3 0  9994
2 67387  97.8019  28.8626 0003167 162.9129 197.2196 14.88601500  2433
TWILIGHT AB             
1 67388U 26004AB  26027.94731134  .00006284  00000+0  67838-3 0  9997
2 67388  97.8008  28.8636 0002819 149.3636 210.7746 14.88704158  2433
TWILIGHT AC             
1 67389U 26004AC  26027.97386664  .00005891  00000+0  30114-3 0  9995
2 67389  97.4565  29.0792 0005247 101.1589 259.0235 15.17030903  2482
CONNECTA IOT-16         
1 67390U 26004AD  26027.90740584  .00006477  00000+0  33058-3 0  9996
2 67390  97.4567  29.0164 0005536 100.2919 259.8939 15.17041145  2475
TWILIGHT AE             
1 67391U 26004AE  26027.97129587  .00010754  00000+0  54358-3 0  9997
2 67391  97.4514  29.0720 0006817  94.2874 265.9139 15.17216174  2488
TWILIGHT AF             
1 67392U 26004AF  26027.96849001  .00069516  00000+0  33884-2 0  9997
2 67392  97.4464  29.0710 0009582 106.9669 253.2616 15.18006983  2483
TWILIGHT AG             
1 67393U 26004AG  26027.96753014  .00019525  00000+0  96429-3 0  9996
2 67393  97.4538  29.0798 0006203 101.4685 258.7246 15.17893264  2481
TWILIGHT AH             
1 67394U 26004AH  26027.89520604  .00008863  00000+0  43628-3 0  9992
2 67394  97.4461  29.0087 0010718 103.1626 257.0805 15.18167646  2479
TWILIGHT AJ             
1 67395U 26004AJ  26027.95698271 -.00001585  00000+0 -16783-3 0  9994
2 67395  97.8006  28.8525 0004289 224.6130 135.4742 14.87763829  2422
