CCSDS_OMM_VERS = 2.0
CREATION_DATE  = 
ORIGINATOR     = 

OBJECT_NAME    = TWILIGHT X
OBJECT_ID      = 2026-004X
CENTER_NAME    = EARTH
REF_FRAME      = TEME
TIME_SYSTEM    = UTC
MEAN_ELEMENT_THEORY = SGP/SGP4

EPOCH          = 2026-01-27T22:53:14.852832
MEAN_MOTION    = 14.88202216
ECCENTRICITY   = .00030991
INCLINATION    = 97.7977
RA_OF_ASC_NODE = 28.8530
ARG_OF_PERICENTER = 206.1091
MEAN_ANOMALY   = 153.9970

EPHEMERIS_TYPE = 0
CLASSIFICATION_TYPE = U
NORAD_CAT_ID   = 67384
ELEMENT_SET_NO = 999
REV_AT_EPOCH   = 243
BSTAR          = .9903186E-3
MEAN_MOTION_DOT = .9089E-4
MEAN_MOTION_DDOT = 0

CCSDS_OMM_VERS = 2.0
CREATION_DATE  = 
ORIGINATOR     = 

OBJECT_NAME    = TWILIGHT Y
OBJECT_ID      = 2026-004Y
CENTER_NAME    = EARTH
REF_FRAME      = TEME
TIME_SYSTEM    = UTC
MEAN_ELEMENT_THEORY = SGP/SGP4

EPOCH          = 2026-01-27T22:51:54.975168
MEAN_MOTION    = 14.88282280
ECCENTRICITY   = .00030267
INCLINATION    = 97.7988
RA_OF_ASC_NODE = 28.8555
ARG_OF_PERICENTER = 198.7925
MEAN_ANOMALY   = 161.3181

EPHEMERIS_TYPE = 0
CLASSIFICATION_TYPE = U
NORAD_CAT_ID   = 67385
ELEMENT_SET_NO = 999
REV_AT_EPOCH   = 243
BSTAR          = .95578033E-3
MEAN_MOTION_DOT = .8787E-4
MEAN_MOTION_DDOT = 0

CCSDS_OMM_VERS = 2.0
CREATION_DATE  = 
ORIGINATOR     = 

OBJECT_NAME    = TWILIGHT Z
OBJECT_ID      = 2026-004Z
CENTER_NAME    = EARTH
REF_FRAME      = TEME
TIME_SYSTEM    = UTC
MEAN_ELEMENT_THEORY = SGP/SGP4

EPOCH          = 2026-01-27T22:49:53.454432
MEAN_MOTION    = 14.88308655
ECCENTRICITY   = .00019077
INCLINATION    = 97.7969
RA_OF_ASC_NODE = 28.8561
ARG_OF_PERICENTER = 195.0669
MEAN_ANOMALY   = 165.0492

EPHEMERIS_TYPE = 0
CLASSIFICATION_TYPE = U
NORAD_CAT_ID   = 67386
ELEMENT_SET_NO = 999
REV_AT_EPOCH   = 243
BSTAR          = .44035442E-3
MEAN_MOTION_DOT = .4019E-4
MEAN_MOTION_DDOT = 0

CCSDS_OMM_VERS = 2.0
CREATION_DATE  = 
ORIGINATOR     = 

OBJECT_NAME    = TWILIGHT AA
OBJECT_ID      = 2026-004AA
CENTER_NAME    = EARTH
REF_FRAME      = TEME
TIME_SYSTEM    = UTC
MEAN_ELEMENT_THEORY = SGP/SGP4

EPOCH          = 2026-01-27T22:46:05.472480
MEAN_MOTION    = 14.88601500
ECCENTRICITY   = .00031675
INCLINATION    = 97.8019
RA_OF_ASC_NODE = 28.8626
ARG_OF_PERICENTER = 162.9129
MEAN_ANOMALY   = 197.2196

EPHEMERIS_TYPE = 0
CLASSIFICATION_TYPE = U
NORAD_CAT_ID   = 67387
ELEMENT_SET_NO = 999
REV_AT_EPOCH   = 243
BSTAR          = .67970365E-3
MEAN_MOTION_DOT = .628E-4
MEAN_MOTION_DDOT = 0

CCSDS_OMM_VERS = 2.0
CREATION_DATE  = 
ORIGINATOR     = 

OBJECT_NAME    = TWILIGHT AB
OBJECT_ID      = 2026-004AB
CENTER_NAME    = EARTH
REF_FRAME      = TEME
TIME_SYSTEM    = UTC
MEAN_ELEMENT_THEORY = SGP/SGP4

EPOCH          = 2026-01-27T22:44:07.699776
MEAN_MOTION    = 14.88704158
ECCENTRICITY   = .00028198
INCLINATION    = 97.8008
RA_OF_ASC_NODE = 28.8636
ARG_OF_PERICENTER = 149.3636
MEAN_ANOMALY   = 210.7746

EPHEMERIS_TYPE = 0
CLASSIFICATION_TYPE = U
NORAD_CAT_ID   = 67388
ELEMENT_SET_NO = 999
REV_AT_EPOCH   = 243
BSTAR          = .6783785E-3
MEAN_MOTION_DOT = .6284E-4
MEAN_MOTION_DDOT = 0

CCSDS_OMM_VERS = 2.0
CREATION_DATE  = 
ORIGINATOR     = 

OBJECT_NAME    = TWILIGHT AC
OBJECT_ID      = 2026-004AC
CENTER_NAME    = EARTH
REF_FRAME      = TEME
TIME_SYSTEM    = UTC
MEAN_ELEMENT_THEORY = SGP/SGP4

EPOCH          = 2026-01-27T23:22:22.077696
MEAN_MOTION    = 15.17030903
ECCENTRICITY   = .00052472
INCLINATION    = 97.4565
RA_OF_ASC_NODE = 29.0792
ARG_OF_PERICENTER = 101.1589
MEAN_ANOMALY   = 259.0235

EPHEMERIS_TYPE = 0
CLASSIFICATION_TYPE = U
NORAD_CAT_ID   = 67389
ELEMENT_SET_NO = 999
REV_AT_EPOCH   = 248
BSTAR          = .30114022E-3
MEAN_MOTION_DOT = .5891E-4
MEAN_MOTION_DDOT = 0

CCSDS_OMM_VERS = 2.0
CREATION_DATE  = 
ORIGINATOR     = 

OBJECT_NAME    = CONNECTA IOT-16
OBJECT_ID      = 2026-004AD
CENTER_NAME    = EARTH
REF_FRAME      = TEME
TIME_SYSTEM    = UTC
MEAN_ELEMENT_THEORY = SGP/SGP4

EPOCH          = 2026-01-27T21:46:39.864576
MEAN_MOTION    = 15.17041145
ECCENTRICITY   = .00055369
INCLINATION    = 97.4567
RA_OF_ASC_NODE = 29.0164
ARG_OF_PERICENTER = 100.2919
MEAN_ANOMALY   = 259.8939

EPHEMERIS_TYPE = 0
CLASSIFICATION_TYPE = U
NORAD_CAT_ID   = 67390
ELEMENT_SET_NO = 999
REV_AT_EPOCH   = 247
BSTAR          = .33058241E-3
MEAN_MOTION_DOT = .6477E-4
MEAN_MOTION_DDOT = 0

CCSDS_OMM_VERS = 2.0
CREATION_DATE  = 
ORIGINATOR     = 

OBJECT_NAME    = TWILIGHT AE
OBJECT_ID      = 2026-004AE
CENTER_NAME    = EARTH
REF_FRAME      = TEME
TIME_SYSTEM    = UTC
MEAN_ELEMENT_THEORY = SGP/SGP4

EPOCH          = 2026-01-27T23:18:39.963168
MEAN_MOTION    = 15.17216174
ECCENTRICITY   = .00068173
INCLINATION    = 97.4514
RA_OF_ASC_NODE = 29.0720
ARG_OF_PERICENTER = 94.2874
MEAN_ANOMALY   = 265.9139

EPHEMERIS_TYPE = 0
CLASSIFICATION_TYPE = U
NORAD_CAT_ID   = 67391
ELEMENT_SET_NO = 999
REV_AT_EPOCH   = 248
BSTAR          = .54358499E-3
MEAN_MOTION_DOT = .10754E-3
MEAN_MOTION_DDOT = 0

CCSDS_OMM_VERS = 2.0
CREATION_DATE  = 
ORIGINATOR     = 

OBJECT_NAME    = TWILIGHT AF
OBJECT_ID      = 2026-004AF
CENTER_NAME    = EARTH
REF_FRAME      = TEME
TIME_SYSTEM    = UTC
MEAN_ELEMENT_THEORY = SGP/SGP4

EPOCH          = 2026-01-27T23:14:37.536864
MEAN_MOTION    = 15.18006983
ECCENTRICITY   = .00095824
INCLINATION    = 97.4464
RA_OF_ASC_NODE = 29.0710
ARG_OF_PERICENTER = 106.9669
MEAN_ANOMALY   = 253.2616

EPHEMERIS_TYPE = 0
CLASSIFICATION_TYPE = U
NORAD_CAT_ID   = 67392
ELEMENT_SET_NO = 999
REV_AT_EPOCH   = 248
BSTAR          = .33884025E-2
MEAN_MOTION_DOT = .69516E-3
MEAN_MOTION_DDOT = 0

CCSDS_OMM_VERS = 2.0
CREATION_DATE  = 
ORIGINATOR     = 

OBJECT_NAME    = TWILIGHT AG
OBJECT_ID      = 2026-004AG
CENTER_NAME    = EARTH
REF_FRAME      = TEME
TIME_SYSTEM    = UTC
MEAN_ELEMENT_THEORY = SGP/SGP4

EPOCH          = 2026-01-27T23:13:14.604096
MEAN_MOTION    = 15.17893264
ECCENTRICITY   = .00062034
INCLINATION    = 97.4538
RA_OF_ASC_NODE = 29.0798
ARG_OF_PERICENTER = 101.4685
MEAN_ANOMALY   = 258.7246

EPHEMERIS_TYPE = 0
CLASSIFICATION_TYPE = U
NORAD_CAT_ID   = 67393
ELEMENT_SET_NO = 999
REV_AT_EPOCH   = 248
BSTAR          = .96428936E-3
MEAN_MOTION_DOT = .19525E-3
MEAN_MOTION_DDOT = 0

CCSDS_OMM_VERS = 2.0
CREATION_DATE  = 
ORIGINATOR     = 

OBJECT_NAME    = TWILIGHT AH
OBJECT_ID      = 2026-004AH
CENTER_NAME    = EARTH
REF_FRAME      = TEME
TIME_SYSTEM    = UTC
MEAN_ELEMENT_THEORY = SGP/SGP4

EPOCH          = 2026-01-27T21:29:05.801856
MEAN_MOTION    = 15.18167646
ECCENTRICITY   = .00107189
INCLINATION    = 97.4461
RA_OF_ASC_NODE = 29.0087
ARG_OF_PERICENTER = 103.1626
MEAN_ANOMALY   = 257.0805

EPHEMERIS_TYPE = 0
CLASSIFICATION_TYPE = U
NORAD_CAT_ID   = 67394
ELEMENT_SET_NO = 999
REV_AT_EPOCH   = 247
BSTAR          = .43628191E-3
MEAN_MOTION_DOT = .8863E-4
MEAN_MOTION_DDOT = 0

CCSDS_OMM_VERS = 2.0
CREATION_DATE  = 
ORIGINATOR     = 

OBJECT_NAME    = TWILIGHT AJ
OBJECT_ID      = 2026-004AJ
CENTER_NAME    = EARTH
REF_FRAME      = TEME
TIME_SYSTEM    = UTC
MEAN_ELEMENT_THEORY = SGP/SGP4

EPOCH          = 2026-01-27T22:58:03.306144
MEAN_MOTION    = 14.87763829
ECCENTRICITY   = .00042895
INCLINATION    = 97.8006
RA_OF_ASC_NODE = 28.8525
ARG_OF_PERICENTER = 224.6130
MEAN_ANOMALY   = 135.4742

EPHEMERIS_TYPE = 0
CLASSIFICATION_TYPE = U
NORAD_CAT_ID   = 67395
ELEMENT_SET_NO = 999
REV_AT_EPOCH   = 242
BSTAR          = -.1678265E-3
MEAN_MOTION_DOT = -.1585E-4
MEAN_MOTION_DDOT = 0

